LANDSAT 9               
1 49260U 21088A   24142.18371586  .00001234  00000+0  28384-3 0  9999
2 49260  98.1878 212.2585 0001067  85.0147 275.1173 14.57118312140765
